     3.04           N: GNSS NAV DATA    M: Mixed            RINEX VERSION / TYPE
RTKCONV demo5 b34g                      20230216 093726 UTC PGM / RUN BY / DATE 
format: RTCM 3                                              COMMENT             
log: C:\Users\Salmos\Desktop\logdata\rtcm3.3\rover.rtcm3    COMMENT             
                                                            END OF HEADER       
C02 2023 02 16 09 00 00 -.606342335232D-03 -.182402537519D-09  .000000000000D+00
      .100000000000D+01 -.134343750000D+03  .183150486096D-08 -.264626815409D+00
     -.449223443866D-05  .107997923624D-02  .146925449371D-04  .649344702911D+04
      .378000000000D+06 -.195112079382D-06 -.785592614469D+00  .190921127796D-07
      .113211511417D+00 -.441093750000D+03 -.133592609313D+01 -.598953520247D-09
      .835391940285D-09  .000000000000D+00  .893000000000D+03  .000000000000D+00
      .200000000000D+01  .000000000000D+00  .140000000000D-08 -.142000000000D-07
      .379233000000D+06  .000000000000D+00
C03 2023 02 16 09 00 00  .230494886637D-03  .584723380825D-10  .000000000000D+00
      .100000000000D+01 -.232359375000D+03  .160935275029D-08 -.483660949163D+00
     -.769784674048D-05  .833984347992D-03  .148178078234D-04  .649336888313D+04
      .378000000000D+06 -.121071934700D-06 -.855011358655D+00 -.186264514923D-07
      .117864494992D+00 -.444187500000D+03 -.584652106067D+00 -.453947480163D-09
      .770032074927D-09  .000000000000D+00  .893000000000D+03  .000000000000D+00
      .200000000000D+01  .000000000000D+00  .230000000000D-08 -.810000000000D-08
      .379233000000D+06  .000000000000D+00
C04 2023 02 16 09 00 00  .153650413267D-03  .126626709118D-09  .000000000000D+00
      .100000000000D+01 -.297546875000D+03 -.760745973838D-10 -.253097496145D+01
     -.972207635641D-05  .353781506419D-03  .122515484691D-04  .649344993591D+04
      .378000000000D+06  .149011611938D-07 -.834633590068D+00 -.226777046919D-06
      .100325080062D+00 -.365468750000D+03  .230747179144D+01  .102825711675D-08
      .801819113270D-09  .000000000000D+00  .893000000000D+03  .000000000000D+00
      .200000000000D+01  .000000000000D+00  .580000000000D-08 -.850000000000D-08
      .379233000000D+06  .000000000000D+00
C06 2023 02 16 09 00 00 -.191346742213D-03 -.731859017833D-12  .000000000000D+00
      .100000000000D+01  .651250000000D+02  .182471886401D-08  .568592464958D+00
      .218255445361D-05  .351271184627D-02  .909902155399D-05  .649318692017D+04
      .378000000000D+06 -.349245965481D-07  .562270110453D+00 -.203028321266D-06
      .946481755461D+00 -.545625000000D+02 -.309118971881D+01 -.205544276030D-08
      .415017287136D-09  .000000000000D+00  .893000000000D+03  .000000000000D+00
      .200000000000D+01  .000000000000D+00  .860000000000D-08 -.180000000000D-08
      .379233000000D+06  .000000000000D+00
C07 2023 02 16 09 00 00  .106393825263D-03 -.552331513859D-10  .000000000000D+00
      .100000000000D+01  .476875000000D+03  .995398605204D-09 -.174314696573D+01
      .156583264470D-04  .226287660189D-02  .166548416018D-04  .649303957558D+04
      .378000000000D+06 -.172294676304D-07  .253048472151D+01 -.205356627703D-06
      .868709339425D+00 -.290000000000D+03 -.276602227842D+01 -.173471511499D-08
     -.656455915452D-09  .000000000000D+00  .893000000000D+03  .000000000000D+00
      .200000000000D+01  .000000000000D+00  .150000000000D-07  .100000000000D-08
      .379233000000D+06  .000000000000D+00
C09 2023 02 16 09 00 00  .696647912264D-03  .153943524595D-09  .000000000000D+00
      .100000000000D+01  .542187500000D+02  .179578908754D-08 -.467634468018D+00
      .170478597283D-05  .103017515503D-01  .865384936333D-05  .649336065483D+04
      .378000000000D+06 -.142026692629D-06  .606101217840D+00 -.740401446819D-07
      .951257328646D+00 -.354687500000D+02 -.232130922341D+01 -.202722729930D-08
      .344657213499D-09  .000000000000D+00  .893000000000D+03  .000000000000D+00
      .200000000000D+01  .000000000000D+00  .690000000000D-08  .370000000000D-08
      .379233000000D+06  .000000000000D+00
C10 2023 02 16 09 00 00  .102204503492D-04 -.819078138647D-11  .000000000000D+00
      .100000000000D+01  .522734375000D+03  .107183036032D-08 -.224121911797D+01
      .170147977769D-04  .845420791302D-02  .153034925461D-04  .649328703117D+04
      .378000000000D+06 -.651925802231D-07  .252445240807D+01 -.189989805222D-06
      .870807825190D+00 -.243515625000D+03 -.245576309093D+01 -.168935608275D-08
     -.634669293666D-09  .000000000000D+00  .893000000000D+03  .000000000000D+00
      .200000000000D+01  .000000000000D+00  .600000000000D-08  .290000000000D-08
      .379233000000D+06  .000000000000D+00
C13 2023 02 16 09 00 00  .209049438126D-03  .889421869488D-11  .000000000000D+00
      .600000000000D+01 -.577984375000D+03  .104825794987D-08  .179562105604D+01
     -.188257545233D-04  .479369866662D-02 -.539235770702D-06  .649329288101D+04
      .378000000000D+06 -.103376805782D-06 -.159628265359D+01  .745058059692D-07
      .101960862979D+01  .271406250000D+03 -.237025123260D+01 -.227295182042D-08
     -.211794536378D-09  .000000000000D+00  .893000000000D+03  .000000000000D+00
      .200000000000D+01  .000000000000D+00 -.940000000000D-08  .260000000000D-08
      .379233000000D+06  .000000000000D+00
C16 2023 02 16 09 00 00  .161030679010D-03 -.948396916556D-11  .000000000000D+00
      .100000000000D+01  .606406250000D+02  .172935774898D-08 -.148436135692D+00
      .206567347050D-05  .555230781902D-02  .931462273002D-05  .649295306396D+04
      .378000000000D+06 -.107102096081D-07  .555103116787D+00 -.200700014830D-06
      .962072756615D+00 -.540000000000D+02 -.232436889024D+01 -.200115478470D-08
      .438946855327D-09  .000000000000D+00  .893000000000D+03  .000000000000D+00
      .200000000000D+01  .000000000000D+00 -.250000000000D-08  .460000000000D-08
      .379233000000D+06  .000000000000D+00
C19 2023 02 16 09 00 00 -.894546392374D-03  .301980662698D-13  .000000000000D+00
      .100000000000D+01 -.118562500000D+03  .346192991756D-08  .931549077684D+00
     -.585615634918D-05  .937739503570D-03  .985013321042D-05  .528263669968D+04
      .378000000000D+06  .237487256527D-07 -.667408941473D+00 -.465661287308D-07
      .972404260061D+00  .171312500000D+03 -.119209661917D+01 -.652027159548D-08
      .205722854897D-09  .000000000000D+00  .893000000000D+03  .000000000000D+00
      .200000000000D+01  .000000000000D+00  .101000000000D-07  .101000000000D-07
      .379233000000D+06  .100000000000D+01
C20 2023 02 16 09 00 00  .721320509911D-03 -.172608594085D-10  .000000000000D+00
      .100000000000D+01 -.121046875000D+03  .343121435242D-08  .125186484389D+01
     -.597536563873D-05  .724127166905D-03  .986596569419D-05  .528263802147D+04
      .378000000000D+06  .335276126862D-07 -.666782634059D+00 -.884756445885D-08
      .972396189142D+00  .170218750000D+03 -.766469301060D+00 -.648026992925D-08
      .183936233111D-09  .000000000000D+00  .893000000000D+03  .000000000000D+00
      .200000000000D+01  .000000000000D+00  .196000000000D-07  .196000000000D-07
      .379233000000D+06  .100000000000D+01
C24 2023 02 16 09 00 00 -.404009013437D-03  .479527528796D-10  .000000000000D+00
      .100000000000D+01  .177187500000D+02  .430875090534D-08  .857881877492D+00
      .786501914263D-06  .813854159787D-03  .692717730999D-05  .528263123322D+04
      .378000000000D+06 -.465661287308D-09  .143048484313D+01 -.465661287308D-09
      .945779924902D+00  .213218750000D+03  .802342812890D+00 -.683564187478D-08
     -.476805575152D-09  .000000000000D+00  .893000000000D+03  .000000000000D+00
      .200000000000D+01  .000000000000D+00  .470000000000D-08  .470000000000D-08
      .379233000000D+06  .100000000000D+01
C26 2023 02 16 09 00 00 -.795217929408D-04 -.554045698209D-11  .000000000000D+00
      .100000000000D+01  .109218750000D+02  .424839124826D-08  .174222028759D+01
      .395346432924D-06  .898805679753D-03  .706315040588D-05  .528261337662D+04
      .378000000000D+06  .325962901115D-07  .140668500779D+01  .931322574615D-09
      .947273624240D+00  .212859375000D+03  .637732556898D+00 -.683099882423D-08
     -.495734935064D-09  .000000000000D+00  .893000000000D+03  .000000000000D+00
      .200000000000D+01  .000000000000D+00 -.440000000000D-08 -.440000000000D-08
      .379233000000D+06  .100000000000D+01
C29 2023 02 16 09 00 00  .818035332486D-04  .509814412908D-11  .000000000000D+00
      .100000000000D+01  .107734375000D+03  .371801201298D-08  .100023925209D+01
      .528339296579D-05  .207131728530D-03  .310735777020D-05  .528262750435D+04
      .378000000000D+06  .311993062496D-07 -.278732144109D+01  .414438545704D-07
      .962336592428D+00  .296484375000D+03  .833154278528D+00 -.703600736366D-08
      .224295057075D-09  .000000000000D+00  .893000000000D+03  .000000000000D+00
      .200000000000D+01  .000000000000D+00  .100000000000D-09  .100000000000D-09
      .379233000000D+06  .100000000000D+01
C30 2023 02 16 07 00 00  .111537519842D-05 -.209610107049D-12  .000000000000D+00
      .100000000000D+01  .103453125000D+03  .374837042039D-08  .133941912750D+01
      .499933958054D-05  .552870915271D-03  .305846333504D-05  .528262563133D+04
      .370800000000D+06  .516884028912D-07 -.278676337734D+01  .614672899246D-07
      .962284124871D+00  .296765625000D+03  .334448698856D+00 -.705850830092D-08
      .213580325049D-09  .000000000000D+00  .893000000000D+03  .000000000000D+00
      .200000000000D+01  .000000000000D+00 -.970000000000D-08 -.970000000000D-08
      .379233000000D+06  .100000000000D+01
